{
  "type": "FeatureCollection",
  "features": [
    {
      "type": "Feature",
      "properties": {
        "norad_id": 39773,
        "name": "EUTELSAT 3B",
        "group": "eutelsat",
        "lat": 0.048157544539726996,
        "lon": 154.93542271519743,
        "alt_km": 35782.487324873,
        "timestamp": "2025-12-22T04:03:38.833274+00:00",
        "meta_object_name": "EUTELSAT 3B",
        "meta_object_id": "2014-030A",
        "meta_epoch": "2025-12-21T18:20:56.581728",
        "meta_mean_motion": 1.00272747,
        "meta_eccentricity": 0.0004134,
        "meta_inclination": 0.0615,
        "meta_ra_of_asc_node": 9.4903,
        "meta_arg_of_pericenter": 224.2782,
        "meta_mean_anomaly": 135.1447,
        "meta_ephemeris_type": 0,
        "meta_classification_type": "U",
        "meta_norad_cat_id": 39773,
        "meta_element_set_no": 999,
        "meta_rev_at_epoch": 4228,
        "meta_bstar": 0,
        "meta_mean_motion_dot": 4.2e-07,
        "meta_mean_motion_ddot": 0,
        "tle_line1": "1 39773U 14030A   25355.76454377  .00000042  00000+0  00000+0 0  9994",
        "tle_line2": "2 39773   0.0615   9.4903 0004134 224.2782 135.1447  1.00272747 42288"
      },
      "geometry": {
        "type": "Point",
        "coordinates": [
          154.93542271519743,
          0.048157544539726996
        ]
      }
    },
    {
      "type": "Feature",
      "properties": {
        "norad_id": 40425,
        "name": "EUTELSAT 115 WEST B",
        "group": "eutelsat",
        "lat": -0.006955874488929426,
        "lon": 36.97881953081256,
        "alt_km": 35786.422510774726,
        "timestamp": "2025-12-22T04:03:38.833286+00:00",
        "meta_object_name": "EUTELSAT 115 WEST B",
        "meta_object_id": "2015-010B",
        "meta_epoch": "2025-12-21T14:21:48.555360",
        "meta_mean_motion": 1.00270264,
        "meta_eccentricity": 3.32e-05,
        "meta_inclination": 0.0122,
        "meta_ra_of_asc_node": 156.3185,
        "meta_arg_of_pericenter": 153.7711,
        "meta_mean_anomaly": 240.874,
        "meta_ephemeris_type": 0,
        "meta_classification_type": "U",
        "meta_norad_cat_id": 40425,
        "meta_element_set_no": 999,
        "meta_rev_at_epoch": 3961,
        "meta_bstar": 0,
        "meta_mean_motion_dot": -2e-08,
        "meta_mean_motion_ddot": 0,
        "tle_line1": "1 40425U 15010B   25355.59847865 -.00000002  00000+0  00000+0 0  9995",
        "tle_line2": "2 40425   0.0122 156.3185 0000332 153.7711 240.8740  1.00270264 39610"
      },
      "geometry": {
        "type": "Point",
        "coordinates": [
          36.97881953081256,
          -0.006955874488929426
        ]
      }
    },
    {
      "type": "Feature",
      "properties": {
        "norad_id": 40875,
        "name": "EUTELSAT 8 WEST B",
        "group": "eutelsat",
        "lat": 0.055106380335781927,
        "lon": 143.84461224837264,
        "alt_km": 35797.33543214479,
        "timestamp": "2025-12-22T04:03:38.833298+00:00",
        "meta_object_name": "EUTELSAT 8 WEST B",
        "meta_object_id": "2015-039B",
        "meta_epoch": "2025-12-21T18:17:41.893152",
        "meta_mean_motion": 1.00271124,
        "meta_eccentricity": 0.0004263,
        "meta_inclination": 0.0634,
        "meta_ra_of_asc_node": 1.1645,
        "meta_arg_of_pericenter": 270.5037,
        "meta_mean_anomaly": 85.3354,
        "meta_ephemeris_type": 0,
        "meta_classification_type": "U",
        "meta_norad_cat_id": 40875,
        "meta_element_set_no": 999,
        "meta_rev_at_epoch": 3787,
        "meta_bstar": 0,
        "meta_mean_motion_dot": -4.3e-07,
        "meta_mean_motion_ddot": 0,
        "tle_line1": "1 40875U 15039B   25355.76229043 -.00000043  00000+0  00000+0 0  9991",
        "tle_line2": "2 40875   0.0634   1.1645 0004263 270.5037  85.3354  1.00271124 37876"
      },
      "geometry": {
        "type": "Point",
        "coordinates": [
          143.84461224837264,
          0.055106380335781927
        ]
      }
    },
    {
      "type": "Feature",
      "properties": {
        "norad_id": 41310,
        "name": "EUTELSAT 9B",
        "group": "eutelsat",
        "lat": 0.07316274813199594,
        "lon": 160.83679584541557,
        "alt_km": 35793.8069230774,
        "timestamp": "2025-12-22T04:03:38.833309+00:00",
        "meta_object_name": "EUTELSAT 9B",
        "meta_object_id": "2016-005A",
        "meta_epoch": "2025-12-21T18:22:33.926016",
        "meta_mean_motion": 1.0027297,
        "meta_eccentricity": 0.0004489,
        "meta_inclination": 0.0649,
        "meta_ra_of_asc_node": 72.3824,
        "meta_arg_of_pericenter": 203.7054,
        "meta_mean_anomaly": 99.1333,
        "meta_ephemeris_type": 0,
        "meta_classification_type": "U",
        "meta_norad_cat_id": 41310,
        "meta_element_set_no": 999,
        "meta_rev_at_epoch": 3633,
        "meta_bstar": 0,
        "meta_mean_motion_dot": 8.4e-07,
        "meta_mean_motion_ddot": 0,
        "tle_line1": "1 41310U 16005A   25355.76567044  .00000084  00000+0  00000+0 0  9990",
        "tle_line2": "2 41310   0.0649  72.3824 0004489 203.7054  99.1333  1.00272970 36333"
      },
      "geometry": {
        "type": "Point",
        "coordinates": [
          160.83679584541557,
          0.07316274813199594
        ]
      }
    },
    {
      "type": "Feature",
      "properties": {
        "norad_id": 41382,
        "name": "EUTELSAT 65 WEST A",
        "group": "eutelsat",
        "lat": 0.07217586289082108,
        "lon": 86.6936546118939,
        "alt_km": 35794.64132456657,
        "timestamp": "2025-12-22T04:03:38.833321+00:00",
        "meta_object_name": "EUTELSAT 65 WEST A",
        "meta_object_id": "2016-014A",
        "meta_epoch": "2025-12-21T18:01:28.445952",
        "meta_mean_motion": 1.00273551,
        "meta_eccentricity": 0.0002143,
        "meta_inclination": 0.0518,
        "meta_ra_of_asc_node": 335.1829,
        "meta_arg_of_pericenter": 298.4226,
        "meta_mean_anomaly": 22.135,
        "meta_ephemeris_type": 0,
        "meta_classification_type": "U",
        "meta_norad_cat_id": 41382,
        "meta_element_set_no": 999,
        "meta_rev_at_epoch": 3575,
        "meta_bstar": 0,
        "meta_mean_motion_dot": -2.54e-06,
        "meta_mean_motion_ddot": 0,
        "tle_line1": "1 41382U 16014A   25355.75102368 -.00000254  00000+0  00000+0 0  9992",
        "tle_line2": "2 41382   0.0518 335.1829 0002143 298.4226  22.1350  1.00273551 35755"
      },
      "geometry": {
        "type": "Point",
        "coordinates": [
          86.6936546118939,
          0.07217586289082108
        ]
      }
    },
    {
      "type": "Feature",
      "properties": {
        "norad_id": 41589,
        "name": "EUTELSAT 117 WEST B",
        "group": "eutelsat",
        "lat": -0.007168281945971301,
        "lon": 34.89457602996987,
        "alt_km": 35786.473188614415,
        "timestamp": "2025-12-22T04:03:38.833333+00:00",
        "meta_object_name": "EUTELSAT 117 WEST B",
        "meta_object_id": "2016-038B",
        "meta_epoch": "2025-12-21T16:03:53.778816",
        "meta_mean_motion": 1.00269911,
        "meta_eccentricity": 3.48e-05,
        "meta_inclination": 0.0115,
        "meta_ra_of_asc_node": 156.0506,
        "meta_arg_of_pericenter": 153.6683,
        "meta_mean_anomaly": 264.7522,
        "meta_ephemeris_type": 0,
        "meta_classification_type": "U",
        "meta_norad_cat_id": 41589,
        "meta_element_set_no": 999,
        "meta_rev_at_epoch": 3488,
        "meta_bstar": 0,
        "meta_mean_motion_dot": 1.1e-07,
        "meta_mean_motion_ddot": 0,
        "tle_line1": "1 41589U 16038B   25355.66937244  .00000011  00000+0  00000+0 0  9996",
        "tle_line2": "2 41589   0.0115 156.0506 0000348 153.6683 264.7522  1.00269911 34886"
      },
      "geometry": {
        "type": "Point",
        "coordinates": [
          34.89457602996987,
          -0.007168281945971301
        ]
      }
    },
    {
      "type": "Feature",
      "properties": {
        "norad_id": 42741,
        "name": "EUTELSAT 172B",
        "group": "eutelsat",
        "lat": -0.01848884952743626,
        "lon": -36.112796412243576,
        "alt_km": 35786.76635312797,
        "timestamp": "2025-12-22T04:03:38.833345+00:00",
        "meta_object_name": "EUTELSAT 172B",
        "meta_object_id": "2017-029B",
        "meta_epoch": "2025-12-21T19:09:06.970176",
        "meta_mean_motion": 1.00271664,
        "meta_eccentricity": 1.9e-05,
        "meta_inclination": 0.0286,
        "meta_ra_of_asc_node": 118.0139,
        "meta_arg_of_pericenter": 351.431,
        "meta_mean_anomaly": 80.4526,
        "meta_ephemeris_type": 0,
        "meta_classification_type": "U",
        "meta_norad_cat_id": 42741,
        "meta_element_set_no": 999,
        "meta_rev_at_epoch": 3195,
        "meta_bstar": 0,
        "meta_mean_motion_dot": 1.7e-07,
        "meta_mean_motion_ddot": 0,
        "tle_line1": "1 42741U 17029B   25355.79799734  .00000017  00000+0  00000+0 0  9998",
        "tle_line2": "2 42741   0.0286 118.0139 0000190 351.4310  80.4526  1.00271664 31956"
      },
      "geometry": {
        "type": "Point",
        "coordinates": [
          -36.112796412243576,
          -0.01848884952743626
        ]
      }
    }
  ]
}